ONEWEB-0564             
1 55801U 23029F   26204.19561064 -.00000013  00000+0 -63539-4 0  9996
2 55801  87.9165 267.2750 0001722  94.1990 265.9340 13.20773048165905
ONEWEB-0638             
1 55802U 23029G   26204.16841708 -.00000179  00000+0 -51748-3 0  9991
2 55802  87.8950 282.5797 0001556 109.2332 250.8966 13.14505011164127
ONEWEB-0639             
1 55803U 23029H   26204.19651638  .00000008  00000+0 -12365-4 0  9999
2 55803  87.9182 297.8058 0002847 113.1002 247.0431 13.19723981163652
ONEWEB-0640             
1 55804U 23029J   26204.17794569 -.00000100  00000+0 -30406-3 0  9998
2 55804  87.8949 282.5681 0001834 118.1267 242.0048 13.14503264164148
ONEWEB-0641             
1 55805U 23029K   26204.26760337  .00000052  00000+0  96452-4 0  9993
2 55805  87.9191 297.7838 0002046 104.2861 255.8499 13.19727899163679
ONEWEB-0642             
1 55806U 23029L   26204.18704619 -.00000023  00000+0 -88881-4 0  9993
2 55806  87.9182 297.8091 0002842 106.8016 253.3429 13.19726857163653
ONEWEB-0643             
1 55807U 23029M   26204.14782225  .00000014  00000+0  38800-5 0  9994
2 55807  87.8968 282.5637 0002692  98.7065 261.4369 13.14502997164115
ONEWEB-0644             
1 55808U 23029N   26204.18231181  .00000067  00000+0  13406-3 0  9990
2 55808  87.9182 297.8110 0002357 102.7265 257.4131 13.19726390163656
ONEWEB-0645             
1 55809U 23029P   26204.20442317  .00000064  00000+0  12639-3 0  9993
2 55809  87.9181 297.8032 0002208 112.0294 248.1073 13.19726480163652
ONEWEB-0646             
1 55810U 23029Q   26203.99434148  .00000044  00000+0  76990-4 0  9992
2 55810  87.9183 297.8453 0002316 102.4169 257.7223 13.19723944163618
ONEWEB-0648             
1 55811U 23029R   26204.19221403  .00000087  00000+0  20025-3 0  9998
2 55811  87.8962 282.5303 0002623 117.6051 242.5345 13.14503534164127
ONEWEB-0649             
1 55812U 23029S   26204.24706125 -.00000021  00000+0 -85626-4 0  9993
2 55812  87.9182 297.7933 0002166 106.5840 253.5531 13.19724012163685
ONEWEB-0650             
1 55813U 23029T   26204.24232789  .00000019  00000+0  16324-4 0  9998
2 55813  87.9183 297.7966 0002592 106.0616 254.0803 13.19724401163659
ONEWEB-0652             
1 55814U 23029U   26204.17318733 -.00000133  00000+0 -39265-3 0  9992
2 55814  87.8954 282.5399 0001979  95.0691 265.0665 13.14502681164091
ONEWEB-0653             
1 55815U 23029V   26204.15732969 -.00000064  00000+0 -20817-3 0  9998
2 55815  87.8970 282.5426 0001922  99.6756 260.4591 13.14502383164121
ONEWEB-0654             
1 55816U 23029W   26203.92421773 -.00000114  00000+0 -34266-3 0  9990
2 55816  87.8965 282.5848 0001700  92.8756 267.2568 13.14502592164113
