{"fetched_at":"2026-07-23T17:55:08.470Z","source":"https://celestrak.org/NORAD/elements/gp.php?GROUP=oneweb&FORMAT=JSON","constellation":"oneweb","records":[{"OBJECT_NAME":"ONEWEB-0564","OBJECT_ID":"2023-029F","EPOCH":"2026-07-23T04:41:40.759296","CLASSIFICATION_TYPE":"U","MEAN_MOTION":13.20773048,"ECCENTRICITY":0.00017224,"INCLINATION":87.9165,"RA_OF_ASC_NODE":267.275,"ARG_OF_PERICENTER":94.199,"MEAN_ANOMALY":265.934,"EPHEMERIS_TYPE":0,"NORAD_CAT_ID":55801,"ELEMENT_SET_NO":999,"REV_AT_EPOCH":16590,"BSTAR":-0.000063538991,"MEAN_MOTION_DOT":-1.3e-7,"MEAN_MOTION_DDOT":0},{"OBJECT_NAME":"ONEWEB-0638","OBJECT_ID":"2023-029G","EPOCH":"2026-07-23T04:02:31.235712","CLASSIFICATION_TYPE":"U","MEAN_MOTION":13.14505011,"ECCENTRICITY":0.00015566,"INCLINATION":87.895,"RA_OF_ASC_NODE":282.5797,"ARG_OF_PERICENTER":109.2332,"MEAN_ANOMALY":250.8966,"EPHEMERIS_TYPE":0,"NORAD_CAT_ID":55802,"ELEMENT_SET_NO":999,"REV_AT_EPOCH":16412,"BSTAR":-0.00051747621,"MEAN_MOTION_DOT":-0.00000179,"MEAN_MOTION_DDOT":0},{"OBJECT_NAME":"ONEWEB-0639","OBJECT_ID":"2023-029H","EPOCH":"2026-07-23T04:42:59.015232","CLASSIFICATION_TYPE":"U","MEAN_MOTION":13.19723981,"ECCENTRICITY":0.00028473,"INCLINATION":87.9182,"RA_OF_ASC_NODE":297.8058,"ARG_OF_PERICENTER":113.1002,"MEAN_ANOMALY":247.0431,"EPHEMERIS_TYPE":0,"NORAD_CAT_ID":55803,"ELEMENT_SET_NO":999,"REV_AT_EPOCH":16365,"BSTAR":-0.000012365035,"MEAN_MOTION_DOT":8e-8,"MEAN_MOTION_DDOT":0},{"OBJECT_NAME":"ONEWEB-0640","OBJECT_ID":"2023-029J","EPOCH":"2026-07-23T04:16:14.507616","CLASSIFICATION_TYPE":"U","MEAN_MOTION":13.14503264,"ECCENTRICITY":0.00018347,"INCLINATION":87.8949,"RA_OF_ASC_NODE":282.5681,"ARG_OF_PERICENTER":118.1267,"MEAN_ANOMALY":242.0048,"EPHEMERIS_TYPE":0,"NORAD_CAT_ID":55804,"ELEMENT_SET_NO":999,"REV_AT_EPOCH":16414,"BSTAR":-0.00030405549,"MEAN_MOTION_DOT":-0.000001,"MEAN_MOTION_DDOT":0},{"OBJECT_NAME":"ONEWEB-0641","OBJECT_ID":"2023-029K","EPOCH":"2026-07-23T06:25:20.931168","CLASSIFICATION_TYPE":"U","MEAN_MOTION":13.19727899,"ECCENTRICITY":0.00020465,"INCLINATION":87.9191,"RA_OF_ASC_NODE":297.7838,"ARG_OF_PERICENTER":104.2861,"MEAN_ANOMALY":255.8499,"EPHEMERIS_TYPE":0,"NORAD_CAT_ID":55805,"ELEMENT_SET_NO":999,"REV_AT_EPOCH":16367,"BSTAR":0.000096452351,"MEAN_MOTION_DOT":5.2e-7,"MEAN_MOTION_DDOT":0},{"OBJECT_NAME":"ONEWEB-0642","OBJECT_ID":"2023-029L","EPOCH":"2026-07-23T04:29:20.790816","CLASSIFICATION_TYPE":"U","MEAN_MOTION":13.19726857,"ECCENTRICITY":0.00028424,"INCLINATION":87.9182,"RA_OF_ASC_NODE":297.8091,"ARG_OF_PERICENTER":106.8016,"MEAN_ANOMALY":253.3429,"EPHEMERIS_TYPE":0,"NORAD_CAT_ID":55806,"ELEMENT_SET_NO":999,"REV_AT_EPOCH":16365,"BSTAR":-0.000088880759,"MEAN_MOTION_DOT":-2.3e-7,"MEAN_MOTION_DDOT":0},{"OBJECT_NAME":"ONEWEB-0643","OBJECT_ID":"2023-029M","EPOCH":"2026-07-23T03:32:51.842400","CLASSIFICATION_TYPE":"U","MEAN_MOTION":13.14502997,"ECCENTRICITY":0.00026921,"INCLINATION":87.8968,"RA_OF_ASC_NODE":282.5637,"ARG_OF_PERICENTER":98.7065,"MEAN_ANOMALY":261.4369,"EPHEMERIS_TYPE":0,"NORAD_CAT_ID":55807,"ELEMENT_SET_NO":999,"REV_AT_EPOCH":16411,"BSTAR":0.000003879966,"MEAN_MOTION_DOT":1.4e-7,"MEAN_MOTION_DDOT":0},{"OBJECT_NAME":"ONEWEB-0644","OBJECT_ID":"2023-029N","EPOCH":"2026-07-23T04:22:31.740384","CLASSIFICATION_TYPE":"U","MEAN_MOTION":13.1972639,"ECCENTRICITY":0.00023573,"INCLINATION":87.9182,"RA_OF_ASC_NODE":297.811,"ARG_OF_PERICENTER":102.7265,"MEAN_ANOMALY":257.4131,"EPHEMERIS_TYPE":0,"NORAD_CAT_ID":55808,"ELEMENT_SET_NO":999,"REV_AT_EPOCH":16365,"BSTAR":0.000134062,"MEAN_MOTION_DOT":6.7e-7,"MEAN_MOTION_DDOT":0},{"OBJECT_NAME":"ONEWEB-0645","OBJECT_ID":"2023-029P","EPOCH":"2026-07-23T04:54:22.161888","CLASSIFICATION_TYPE":"U","MEAN_MOTION":13.1972648,"ECCENTRICITY":0.00022082,"INCLINATION":87.9181,"RA_OF_ASC_NODE":297.8032,"ARG_OF_PERICENTER":112.0294,"MEAN_ANOMALY":248.1073,"EPHEMERIS_TYPE":0,"NORAD_CAT_ID":55809,"ELEMENT_SET_NO":999,"REV_AT_EPOCH":16365,"BSTAR":0.00012638784,"MEAN_MOTION_DOT":6.4e-7,"MEAN_MOTION_DDOT":0},{"OBJECT_NAME":"ONEWEB-0646","OBJECT_ID":"2023-029Q","EPOCH":"2026-07-22T23:51:51.103872","CLASSIFICATION_TYPE":"U","MEAN_MOTION":13.19723944,"ECCENTRICITY":0.00023163,"INCLINATION":87.9183,"RA_OF_ASC_NODE":297.8453,"ARG_OF_PERICENTER":102.4169,"MEAN_ANOMALY":257.7223,"EPHEMERIS_TYPE":0,"NORAD_CAT_ID":55810,"ELEMENT_SET_NO":999,"REV_AT_EPOCH":16361,"BSTAR":0.000076989569,"MEAN_MOTION_DOT":4.4e-7,"MEAN_MOTION_DDOT":0},{"OBJECT_NAME":"ONEWEB-0648","OBJECT_ID":"2023-029R","EPOCH":"2026-07-23T04:36:47.292192","CLASSIFICATION_TYPE":"U","MEAN_MOTION":13.14503534,"ECCENTRICITY":0.00026236,"INCLINATION":87.8962,"RA_OF_ASC_NODE":282.5303,"ARG_OF_PERICENTER":117.6051,"MEAN_ANOMALY":242.5345,"EPHEMERIS_TYPE":0,"NORAD_CAT_ID":55811,"ELEMENT_SET_NO":999,"REV_AT_EPOCH":16412,"BSTAR":0.00020024914,"MEAN_MOTION_DOT":8.7e-7,"MEAN_MOTION_DDOT":0},{"OBJECT_NAME":"ONEWEB-0649","OBJECT_ID":"2023-029S","EPOCH":"2026-07-23T05:55:46.092000","CLASSIFICATION_TYPE":"U","MEAN_MOTION":13.19724012,"ECCENTRICITY":0.00021669,"INCLINATION":87.9182,"RA_OF_ASC_NODE":297.7933,"ARG_OF_PERICENTER":106.584,"MEAN_ANOMALY":253.5531,"EPHEMERIS_TYPE":0,"NORAD_CAT_ID":55812,"ELEMENT_SET_NO":999,"REV_AT_EPOCH":16368,"BSTAR":-0.000085626143,"MEAN_MOTION_DOT":-2.1e-7,"MEAN_MOTION_DDOT":0},{"OBJECT_NAME":"ONEWEB-0650","OBJECT_ID":"2023-029T","EPOCH":"2026-07-23T05:48:57.129696","CLASSIFICATION_TYPE":"U","MEAN_MOTION":13.19724401,"ECCENTRICITY":0.00025927,"INCLINATION":87.9183,"RA_OF_ASC_NODE":297.7966,"ARG_OF_PERICENTER":106.0616,"MEAN_ANOMALY":254.0803,"EPHEMERIS_TYPE":0,"NORAD_CAT_ID":55813,"ELEMENT_SET_NO":999,"REV_AT_EPOCH":16365,"BSTAR":0.000016323587,"MEAN_MOTION_DOT":1.9e-7,"MEAN_MOTION_DDOT":0},{"OBJECT_NAME":"ONEWEB-0652","OBJECT_ID":"2023-029U","EPOCH":"2026-07-23T04:09:23.385312","CLASSIFICATION_TYPE":"U","MEAN_MOTION":13.14502681,"ECCENTRICITY":0.00019793,"INCLINATION":87.8954,"RA_OF_ASC_NODE":282.5399,"ARG_OF_PERICENTER":95.0691,"MEAN_ANOMALY":265.0665,"EPHEMERIS_TYPE":0,"NORAD_CAT_ID":55814,"ELEMENT_SET_NO":999,"REV_AT_EPOCH":16409,"BSTAR":-0.00039264708,"MEAN_MOTION_DOT":-0.00000133,"MEAN_MOTION_DDOT":0},{"OBJECT_NAME":"ONEWEB-0653","OBJECT_ID":"2023-029V","EPOCH":"2026-07-23T03:46:33.285216","CLASSIFICATION_TYPE":"U","MEAN_MOTION":13.14502383,"ECCENTRICITY":0.00019221,"INCLINATION":87.897,"RA_OF_ASC_NODE":282.5426,"ARG_OF_PERICENTER":99.6756,"MEAN_ANOMALY":260.4591,"EPHEMERIS_TYPE":0,"NORAD_CAT_ID":55815,"ELEMENT_SET_NO":999,"REV_AT_EPOCH":16412,"BSTAR":-0.00020816854,"MEAN_MOTION_DOT":-6.4e-7,"MEAN_MOTION_DDOT":0},{"OBJECT_NAME":"ONEWEB-0654","OBJECT_ID":"2023-029W","EPOCH":"2026-07-22T22:10:52.411872","CLASSIFICATION_TYPE":"U","MEAN_MOTION":13.14502592,"ECCENTRICITY":0.00017004,"INCLINATION":87.8965,"RA_OF_ASC_NODE":282.5848,"ARG_OF_PERICENTER":92.8756,"MEAN_ANOMALY":267.2568,"EPHEMERIS_TYPE":0,"NORAD_CAT_ID":55816,"ELEMENT_SET_NO":999,"REV_AT_EPOCH":16411,"BSTAR":-0.00034266259,"MEAN_MOTION_DOT":-0.00000114,"MEAN_MOTION_DDOT":0}]}
